{
 "type": "FeatureCollection",
 "properties": {
  "name": "고흥항공센터 주변 지형 (비행장 경계, 활주로, 해안선)",
  "source": "© OpenStreetMap contributors, ODbL 1.0 (Overpass API, 2026-09-26)",
  "note": "coastline: OSM 규약상 진행방향 왼쪽이 육지, 오른쪽이 바다"
 },
 "features": [
  {
   "type": "Feature",
   "properties": {
    "kind": "coastline",
    "osm_id": 22782671
   },
   "geometry": {
    "type": "LineString",
    "coordinates": [
     [
      127.1717163,
      34.5947452
     ],
     [
      127.1716713,
      34.5946273
     ],
     [
      127.1715874,
      34.5945151
     ],
     [
      127.1713288,
      34.5941606
     ],
     [
      127.1710004,
      34.5938353
     ],
     [
      127.1708101,
      34.5936499
     ],
     [
      127.1705099,
      34.5933901
     ],
     [
      127.1703126,
      34.5932261
     ],
     [
      127.1700326,
      34.5930098
     ],
     [
      127.1696417,
      34.5927663
     ],
     [
      127.1693585,
      34.5925977
     ],
     [
      127.1687901,
      34.5922957
     ],
     [
      127.1684957,
      34.5921393
     ],
     [
      127.1678183,
      34.5918022
     ],
     [
      127.1664705,
      34.5911331
     ],
     [
      127.1658752,
      34.5908699
     ],
     [
      127.1655375,
      34.5908994
     ],
     [
      127.1644631,
      34.5906535
     ],
     [
      127.163368,
      34.5904796
     ],
     [
      127.1631064,
      34.5904218
     ],
     [
      127.1628611,
      34.590257
     ],
     [
      127.1627296,
      34.5903867
     ],
     [
      127.1624518,
      34.5903959
     ],
     [
      127.1624138,
      34.5904997
     ],
     [
      127.1618093,
      34.5904328
     ],
     [
      127.1611077,
      34.5905093
     ],
     [
      127.16078,
      34.5908
     ],
     [
      127.1594525,
      34.5909998
     ],
     [
      127.15922,
      34.5912901
     ],
     [
      127.1589001,
      34.5915399
     ],
     [
      127.15837,
      34.5916367
     ],
     [
      127.1578562,
      34.591854
     ],
     [
      127.1580788,
      34.5922162
     ],
     [
      127.1582365,
      34.5926453
     ],
     [
      127.1581491,
      34.5926417
     ],
     [
      127.1580648,
      34.5924258
     ],
     [
      127.15733,
      34.5922901
     ],
     [
      127.15641,
      34.59227
     ],
     [
      127.15609,
      34.59227
     ],
     [
      127.15577,
      34.5925201
     ],
     [
      127.1551499,
      34.5927699
     ],
     [
      127.15421,
      34.59301
     ],
     [
      127.15265,
      34.59325
     ],
     [
      127.1514,
      34.59348
     ],
     [
      127.15109,
      34.5936101
     ],
     [
      127.150593,
      34.5940816
     ],
     [
      127.150217,
      34.5943841
     ],
     [
      127.1503095,
      34.5947076
     ],
     [
      127.1502063,
      34.5950615
     ],
     [
      127.1505701,
      34.5954001
     ],
     [
      127.1508165,
      34.5964966
     ],
     [
      127.15086,
      34.59669
     ],
     [
      127.15085,
      34.5971999
     ],
     [
      127.15053,
      34.59771
     ],
     [
      127.15052,
      34.5979701
     ],
     [
      127.15052,
      34.5982199
     ],
     [
      127.1502,
      34.59847
     ],
     [
      127.14989,
      34.5987301
     ],
     [
      127.14955,
      34.59924
     ],
     [
      127.1493878,
      34.5995039
     ],
     [
      127.149252,
      34.5997248
     ],
     [
      127.1492401,
      34.6
     ],
     [
      127.14908,
      34.60026
     ],
     [
      127.14877,
      34.60025
     ],
     [
      127.1486135,
      34.5999056
     ],
     [
      127.1482471,
      34.5995338
     ],
     [
      127.1480872,
      34.5988832
     ],
     [
      127.1477938,
      34.5985048
     ],
     [
      127.1479645,
      34.598144
     ],
     [
      127.1480499,
      34.59767
     ],
     [
      127.1480052,
      34.597379
     ],
     [
      127.1473927,
      34.596667
     ],
     [
      127.1471119,
      34.5964008
     ],
     [
      127.146579,
      34.5961584
     ],
     [
      127.1463699,
      34.59623
     ],
     [
      127.1460326,
      34.5961985
     ],
     [
      127.1458365,
      34.5960484
     ],
     [
      127.1457618,
      34.595813
     ],
     [
      127.1454501,
      34.59558
     ],
     [
      127.14531,
      34.5950601
     ],
     [
      127.1452006,
      34.5947792
     ],
     [
      127.1450101,
      34.5942901
     ],
     [
      127.1450299,
      34.5935299
     ],
     [
      127.1451916,
      34.5932689
     ],
     [
      127.1452348,
      34.5928349
     ],
     [
      127.14506,
      34.5919699
     ],
     [
      127.1446919,
      34.5914904
     ],
     [
      127.143998,
      34.5911912
     ],
     [
      127.1438542,
      34.5913254
     ],
     [
      127.1438014,
      34.5913756
     ],
     [
      127.1437201,
      34.5914057
     ],
     [
      127.1435778,
      34.591389
     ],
     [
      127.1435981,
      34.5913321
     ],
     [
      127.143716,
      34.5913388
     ],
     [
      127.1438054,
      34.591312
     ],
     [
      127.1438989,
      34.5912384
     ],
     [
      127.1441063,
      34.5909773
     ],
     [
      127.1437404,
      34.5906895
     ],
     [
      127.1434111,
      34.5906393
     ],
     [
      127.1433094,
      34.5907765
     ],
     [
      127.1433542,
      34.5908501
     ],
     [
      127.1436103,
      34.591138
     ],
     [
      127.1435615,
      34.5911882
     ],
     [
      127.1432566,
      34.59082
     ],
     [
      127.1432403,
      34.5907865
     ],
     [
      127.1432688,
      34.5907464
     ],
     [
      127.143353,
      34.5906211
     ]
    ]
   }
  },
  {
   "type": "Feature",
   "properties": {
    "kind": "coastline",
    "osm_id": 148224133
   },
   "geometry": {
    "type": "LineString",
    "coordinates": [
     [
      127.1979329,
      34.6475715
     ],
     [
      127.1979094,
      34.6476088
     ],
     [
      127.1977922,
      34.6475723
     ],
     [
      127.1976461,
      34.6480168
     ],
     [
      127.1974171,
      34.6486984
     ],
     [
      127.1976204,
      34.6490358
     ],
     [
      127.1976741,
      34.64926
     ],
     [
      127.197617,
      34.649545
     ],
     [
      127.197423,
      34.6497985
     ],
     [
      127.1965631,
      34.6501959
     ],
     [
      127.1965645,
      34.6508164
     ],
     [
      127.1969027,
      34.6511565
     ],
     [
      127.1974951,
      34.6508219
     ],
     [
      127.1976042,
      34.6509708
     ],
     [
      127.1964726,
      34.6516252
     ],
     [
      127.1960969,
      34.6513303
     ],
     [
      127.1961195,
      34.6512991
     ],
     [
      127.1960354,
      34.6512206
     ],
     [
      127.1961983,
      34.6510588
     ],
     [
      127.1961085,
      34.6509359
     ],
     [
      127.1963394,
      34.6508216
     ],
     [
      127.1963338,
      34.6504518
     ],
     [
      127.1959365,
      34.6500923
     ],
     [
      127.1956655,
      34.6496464
     ],
     [
      127.1956607,
      34.64927
     ],
     [
      127.1957511,
      34.6487817
     ],
     [
      127.1958987,
      34.6485113
     ],
     [
      127.1959345,
      34.6484206
     ],
     [
      127.196008,
      34.6476673
     ],
     [
      127.1961201,
      34.647525
     ],
     [
      127.1961473,
      34.6474527
     ],
     [
      127.1962151,
      34.6472721
     ],
     [
      127.1962505,
      34.6470714
     ],
     [
      127.1962338,
      34.6468475
     ],
     [
      127.19609,
      34.6464499
     ],
     [
      127.19579,
      34.64593
     ],
     [
      127.1953923,
      34.6452981
     ],
     [
      127.19488,
      34.6446401
     ],
     [
      127.1945871,
      34.6442698
     ],
     [
      127.1943673,
      34.6441135
     ],
     [
      127.1941611,
      34.6440207
     ],
     [
      127.1939992,
      34.6439569
     ],
     [
      127.1937734,
      34.6438954
     ],
     [
      127.1931718,
      34.6438046
     ],
     [
      127.19257,
      34.6437
     ],
     [
      127.1919065,
      34.6436405
     ],
     [
      127.1915342,
      34.6435813
     ],
     [
      127.1912599,
      34.6436241
     ],
     [
      127.1907171,
      34.6435397
     ],
     [
      127.1899498,
      34.6435472
     ],
     [
      127.1895302,
      34.6433206
     ],
     [
      127.189305,
      34.6429942
     ],
     [
      127.1890822,
      34.6422174
     ],
     [
      127.1889338,
      34.64171
     ],
     [
      127.18843,
      34.64094
     ],
     [
      127.1881198,
      34.6404629
     ],
     [
      127.1878744,
      34.6401294
     ],
     [
      127.1875681,
      34.6397759
     ],
     [
      127.18723,
      34.63938
     ],
     [
      127.1869859,
      34.6390258
     ],
     [
      127.1866199,
      34.6386
     ],
     [
      127.18632,
      34.6383399
     ],
     [
      127.1860224,
      34.638002
     ],
     [
      127.1859126,
      34.637881
     ],
     [
      127.185668,
      34.6376617
     ],
     [
      127.1854598,
      34.6375063
     ],
     [
      127.1849487,
      34.6374572
     ],
     [
      127.1848741,
      34.6373248
     ],
     [
      127.1847957,
      34.6371341
     ],
     [
      127.1848172,
      34.6370935
     ],
     [
      127.1847186,
      34.6368882
     ],
     [
      127.1844383,
      34.636797
     ],
     [
      127.1844968,
      34.6367006
     ],
     [
      127.1846817,
      34.6367716
     ],
     [
      127.1848111,
      34.6367488
     ],
     [
      127.1850391,
      34.6372887
     ],
     [
      127.1852085,
      34.6372406
     ],
     [
      127.1853441,
      34.6371417
     ],
     [
      127.185455,
      34.6370124
     ],
     [
      127.1854345,
      34.6369446
     ],
     [
      127.1854168,
      34.6368534
     ],
     [
      127.1853984,
      34.6367504
     ],
     [
      127.184939,
      34.6366951
     ],
     [
      127.1849606,
      34.6366552
     ],
     [
      127.1854016,
      34.6367014
     ],
     [
      127.1854488,
      34.6366018
     ],
     [
      127.1854989,
      34.6364788
     ]
    ]
   }
  },
  {
   "type": "Feature",
   "properties": {
    "kind": "aerodrome",
    "osm_id": 480422201,
    "name": "고흥항공센터",
    "name:en": "Goheung Aeronautical Center"
   },
   "geometry": {
    "type": "Polygon",
    "coordinates": [
     [
      [
       127.2063659,
       34.6118087
      ],
      [
       127.2095443,
       34.6114002
      ],
      [
       127.2102491,
       34.6156911
      ],
      [
       127.2136445,
       34.6152843
      ],
      [
       127.2145818,
       34.6140204
      ],
      [
       127.214744,
       34.6137077
      ],
      [
       127.2147957,
       34.6135065
      ],
      [
       127.2148127,
       34.6133031
      ],
      [
       127.2148097,
       34.6130938
      ],
      [
       127.2145429,
       34.6079047
      ],
      [
       127.2136237,
       34.5977373
      ],
      [
       127.2136073,
       34.597632
      ],
      [
       127.2135913,
       34.597605
      ],
      [
       127.2135419,
       34.5975939
      ],
      [
       127.2134073,
       34.5976094
      ],
      [
       127.2104955,
       34.5979746
      ],
      [
       127.2101843,
       34.5980216
      ],
      [
       127.2101045,
       34.5980461
      ],
      [
       127.2100555,
       34.5981092
      ],
      [
       127.2100368,
       34.5982331
      ],
      [
       127.2102952,
       34.6008161
      ],
      [
       127.2105248,
       34.6037082
      ],
      [
       127.2105714,
       34.6054007
      ],
      [
       127.2053232,
       34.6061225
      ],
      [
       127.203951,
       34.6063188
      ],
      [
       127.205819,
       34.6162694
      ],
      [
       127.2071298,
       34.6160994
      ],
      [
       127.2063659,
       34.6118087
      ]
     ]
    ]
   }
  },
  {
   "type": "Feature",
   "properties": {
    "kind": "coastline",
    "osm_id": 566797779
   },
   "geometry": {
    "type": "LineString",
    "coordinates": [
     [
      127.2271922,
      34.6615069
     ],
     [
      127.2273223,
      34.6616416
     ],
     [
      127.2278644,
      34.6617079
     ],
     [
      127.2280394,
      34.6615837
     ],
     [
      127.2282543,
      34.6607949
     ],
     [
      127.2285395,
      34.6605416
     ],
     [
      127.2286121,
      34.6600314
     ],
     [
      127.2285949,
      34.6595716
     ],
     [
      127.2283616,
      34.6580198
     ],
     [
      127.2281723,
      34.657501
     ],
     [
      127.2277521,
      34.656803
     ],
     [
      127.227607,
      34.6566568
     ],
     [
      127.2268915,
      34.656473
     ],
     [
      127.2267834,
      34.6563765
     ],
     [
      127.2265795,
      34.6560637
     ],
     [
      127.2267214,
      34.6560133
     ],
     [
      127.2268973,
      34.6562934
     ],
     [
      127.2269433,
      34.656334
     ],
     [
      127.2270268,
      34.6563721
     ],
     [
      127.2275375,
      34.656464
     ],
     [
      127.2276952,
      34.6562896
     ],
     [
      127.2277909,
      34.6560943
     ],
     [
      127.2278418,
      34.655843
     ],
     [
      127.2278314,
      34.6553984
     ],
     [
      127.2278154,
      34.655024
     ],
     [
      127.2279246,
      34.6546215
     ],
     [
      127.2278775,
      34.6545734
     ],
     [
      127.1995292,
      34.6480159
     ],
     [
      127.19931,
      34.6485501
     ],
     [
      127.1991582,
      34.6487084
     ],
     [
      127.1989497,
      34.6487247
     ],
     [
      127.198705,
      34.6486465
     ],
     [
      127.1985812,
      34.6484988
     ],
     [
      127.198451,
      34.6479051
     ],
     [
      127.1984003,
      34.647766
     ],
     [
      127.1982911,
      34.6477095
     ],
     [
      127.1982567,
      34.6476598
     ],
     [
      127.1980953,
      34.6476158
     ],
     [
      127.1979329,
      34.6475715
     ]
    ]
   }
  },
  {
   "type": "Feature",
   "properties": {
    "kind": "coastline",
    "osm_id": 566803244
   },
   "geometry": {
    "type": "LineString",
    "coordinates": [
     [
      127.1854989,
      34.6364788
     ],
     [
      127.1855166,
      34.6360299
     ],
     [
      127.1854386,
      34.6357554
     ],
     [
      127.1851477,
      34.6352095
     ],
     [
      127.18453,
      34.6344499
     ],
     [
      127.1841153,
      34.6339253
     ],
     [
      127.1838852,
      34.6337019
     ],
     [
      127.1836114,
      34.6333768
     ],
     [
      127.1833734,
      34.6331207
     ],
     [
      127.182984,
      34.6327427
     ],
     [
      127.1827292,
      34.6324341
     ],
     [
      127.1824549,
      34.6321622
     ],
     [
      127.1821,
      34.63185
     ],
     [
      127.1818001,
      34.63159
     ],
     [
      127.1814452,
      34.6313812
     ],
     [
      127.1810301,
      34.6311901
     ],
     [
      127.1801,
      34.63092
     ],
     [
      127.180042,
      34.6309411
     ],
     [
      127.1791847,
      34.6311389
     ],
     [
      127.1795485,
      34.6324465
     ],
     [
      127.1794449,
      34.6324752
     ],
     [
      127.178948,
      34.6307917
     ],
     [
      127.1787101,
      34.6305
     ],
     [
      127.17841,
      34.63025
     ],
     [
      127.17809,
      34.6299901
     ],
     [
      127.1777645,
      34.6297666
     ],
     [
      127.1772984,
      34.6297006
     ],
     [
      127.176904,
      34.6298066
     ],
     [
      127.1765819,
      34.6298091
     ],
     [
      127.1765556,
      34.6295867
     ],
     [
      127.1762799,
      34.6295141
     ],
     [
      127.1760314,
      34.6295012
     ],
     [
      127.1760593,
      34.6290868
     ],
     [
      127.1759302,
      34.6288497
     ],
     [
      127.175367,
      34.6283197
     ],
     [
      127.174806,
      34.6277862
     ],
     [
      127.1743187,
      34.6273055
     ],
     [
      127.1740976,
      34.6271336
     ],
     [
      127.1738662,
      34.6270608
     ],
     [
      127.1736103,
      34.6272078
     ],
     [
      127.1733448,
      34.6272442
     ],
     [
      127.1730401,
      34.6270901
     ],
     [
      127.1729,
      34.6263101
     ],
     [
      127.1726099,
      34.62528
     ],
     [
      127.17232,
      34.62451
     ],
     [
      127.1719706,
      34.6239106
     ],
     [
      127.1717611,
      34.6233625
     ],
     [
      127.1720401,
      34.62296
     ],
     [
      127.1722,
      34.62283
     ],
     [
      127.1726438,
      34.6226876
     ],
     [
      127.1726287,
      34.6224152
     ],
     [
      127.1725697,
      34.6224064
     ],
     [
      127.1725161,
      34.6220577
     ],
     [
      127.1727038,
      34.6220621
     ],
     [
      127.1727038,
      34.6224682
     ],
     [
      127.1727414,
      34.6226315
     ],
     [
      127.1728057,
      34.6226713
     ],
     [
      127.1729881,
      34.6226536
     ],
     [
      127.173074,
      34.6226404
     ],
     [
      127.173031,
      34.62253
     ],
     [
      127.1731276,
      34.6224991
     ],
     [
      127.1732295,
      34.6226492
     ],
     [
      127.1733529,
      34.6225256
     ],
     [
      127.173192,
      34.6223976
     ],
     [
      127.1734656,
      34.6222166
     ],
     [
      127.1738522,
      34.6222397
     ]
    ]
   }
  },
  {
   "type": "Feature",
   "properties": {
    "kind": "coastline",
    "osm_id": 566803245
   },
   "geometry": {
    "type": "LineString",
    "coordinates": [
     [
      127.1703578,
      34.6174841
     ],
     [
      127.1709977,
      34.6171667
     ],
     [
      127.1709068,
      34.6170437
     ],
     [
      127.1710553,
      34.6169291
     ],
     [
      127.1712607,
      34.616674
     ],
     [
      127.1717199,
      34.6164
     ],
     [
      127.17188,
      34.61628
     ],
     [
      127.1720639,
      34.6160305
     ],
     [
      127.1720826,
      34.6156716
     ],
     [
      127.1719713,
      34.6154599
     ],
     [
      127.1717558,
      34.6152554
     ],
     [
      127.1717189,
      34.6152204
     ],
     [
      127.1714666,
      34.6149608
     ],
     [
      127.1714346,
      34.6147539
     ],
     [
      127.1714009,
      34.6145354
     ],
     [
      127.1716931,
      34.6143578
     ],
     [
      127.1719201,
      34.6142199
     ],
     [
      127.17208,
      34.6140999
     ],
     [
      127.1722401,
      34.6139701
     ],
     [
      127.1724535,
      34.613893
     ],
     [
      127.1726895,
      34.6137509
     ],
     [
      127.1728111,
      34.6136032
     ],
     [
      127.17287,
      34.61348
     ],
     [
      127.1729105,
      34.6131595
     ],
     [
      127.1727559,
      34.6127044
     ],
     [
      127.1725801,
      34.6124299
     ],
     [
      127.1725867,
      34.6122645
     ],
     [
      127.1725901,
      34.6121801
     ],
     [
      127.17275,
      34.61205
     ],
     [
      127.1729,
      34.61192
     ],
     [
      127.1730599,
      34.6118
     ],
     [
      127.1731748,
      34.6117063
     ],
     [
      127.1732483,
      34.6115596
     ],
     [
      127.17323,
      34.6114201
     ],
     [
      127.173192,
      34.611209
     ],
     [
      127.1731067,
      34.6109754
     ],
     [
      127.1730159,
      34.6108058
     ],
     [
      127.1729397,
      34.6106634
     ],
     [
      127.17263,
      34.61013
     ],
     [
      127.1724113,
      34.6098266
     ],
     [
      127.1721241,
      34.6094354
     ],
     [
      127.1718985,
      34.6091152
     ],
     [
      127.1718477,
      34.6089448
     ],
     [
      127.1719121,
      34.6086103
     ],
     [
      127.171899,
      34.6085142
     ],
     [
      127.1718827,
      34.6084655
     ],
     [
      127.1718527,
      34.6083763
     ],
     [
      127.1714948,
      34.6080865
     ],
     [
      127.1711856,
      34.6081715
     ],
     [
      127.1710877,
      34.6080738
     ],
     [
      127.1713959,
      34.6079854
     ],
     [
      127.1717546,
      34.6078666
     ],
     [
      127.17176,
      34.607673
     ],
     [
      127.1718504,
      34.6074117
     ],
     [
      127.1717782,
      34.6072334
     ],
     [
      127.1708803,
      34.6069435
     ],
     [
      127.1708839,
      34.6068913
     ],
     [
      127.1719189,
      34.6072031
     ],
     [
      127.1721406,
      34.6071295
     ],
     [
      127.1724141,
      34.6069563
     ],
     [
      127.1725337,
      34.6068817
     ],
     [
      127.1726066,
      34.6068363
     ],
     [
      127.1727482,
      34.6066816
     ],
     [
      127.1728433,
      34.6064515
     ],
     [
      127.1728413,
      34.6059519
     ],
     [
      127.1725001,
      34.6051438
     ],
     [
      127.1722168,
      34.6047156
     ],
     [
      127.1717432,
      34.604297
     ],
     [
      127.1708675,
      34.6037927
     ],
     [
      127.1707944,
      34.6035614
     ],
     [
      127.1704745,
      34.603542
     ],
     [
      127.1703584,
      34.6038795
     ],
     [
      127.1698101,
      34.60404
     ],
     [
      127.1694999,
      34.60416
     ],
     [
      127.1693701,
      34.6036499
     ],
     [
      127.1690499,
      34.60339
     ],
     [
      127.1688816,
      34.6032497
     ],
     [
      127.1686668,
      34.6032186
     ],
     [
      127.1685189,
      34.6031245
     ],
     [
      127.1683742,
      34.6031253
     ],
     [
      127.1682765,
      34.6030321
     ],
     [
      127.168259,
      34.6029245
     ],
     [
      127.1681197,
      34.6028085
     ],
     [
      127.167962,
      34.6027027
     ],
     [
      127.1678968,
      34.6024881
     ],
     [
      127.1679509,
      34.6023472
     ],
     [
      127.1680527,
      34.6022615
     ],
     [
      127.1681435,
      34.602172
     ],
     [
      127.1682005,
      34.6019651
     ],
     [
      127.1682223,
      34.6018039
     ],
     [
      127.1681737,
      34.6016282
     ],
     [
      127.1681815,
      34.601359
     ],
     [
      127.1682938,
      34.6011062
     ],
     [
      127.1683776,
      34.6009997
     ],
     [
      127.1685315,
      34.6008279
     ],
     [
      127.1688126,
      34.6003603
     ],
     [
      127.1688988,
      34.6003706
     ],
     [
      127.169095,
      34.600394
     ],
     [
      127.1693937,
      34.6003809
     ],
     [
      127.1695213,
      34.6000098
     ],
     [
      127.1694601,
      34.5987599
     ],
     [
      127.1694701,
      34.5985101
     ],
     [
      127.1695473,
      34.5982411
     ],
     [
      127.1699248,
      34.5979112
     ],
     [
      127.1704923,
      34.5979998
     ],
     [
      127.17088,
      34.5977599
     ],
     [
      127.1711336,
      34.5974567
     ],
     [
      127.17121,
      34.59712
     ],
     [
      127.1711944,
      34.5969793
     ],
     [
      127.1711525,
      34.5967194
     ],
     [
      127.171405,
      34.5965282
     ],
     [
      127.17154,
      34.59636
     ],
     [
      127.1717001,
      34.59623
     ],
     [
      127.17185,
      34.5960999
     ],
     [
      127.171943,
      34.5958352
     ],
     [
      127.1720559,
      34.5957225
     ],
     [
      127.1721064,
      34.5956389
     ],
     [
      127.1718288,
      34.5950087
     ],
     [
      127.1717163,
      34.5947452
     ]
    ]
   }
  },
  {
   "type": "Feature",
   "properties": {
    "kind": "coastline",
    "osm_id": 916215778
   },
   "geometry": {
    "type": "LineString",
    "coordinates": [
     [
      127.1738522,
      34.6222397
     ],
     [
      127.1739988,
      34.621889
     ],
     [
      127.1740745,
      34.6215615
     ],
     [
      127.1739499,
      34.62093
     ],
     [
      127.1737019,
      34.6197825
     ],
     [
      127.1734468,
      34.6194459
     ],
     [
      127.1730056,
      34.6187248
     ],
     [
      127.1724073,
      34.6180574
     ],
     [
      127.1721608,
      34.6177405
     ],
     [
      127.1717534,
      34.6173178
     ],
     [
      127.1714225,
      34.6172386
     ],
     [
      127.171104,
      34.6172588
     ],
     [
      127.1708179,
      34.6173993
     ],
     [
      127.1704256,
      34.6175734
     ],
     [
      127.1703578,
      34.6174841
     ]
    ]
   }
  },
  {
   "type": "Feature",
   "properties": {
    "kind": "runway",
    "osm_id": 1349144837,
    "length": "700",
    "ref": "02/20",
    "width": "23"
   },
   "geometry": {
    "type": "LineString",
    "coordinates": [
     [
      127.2051334,
      34.6080903
     ],
     [
      127.2053311,
      34.6091179
     ],
     [
      127.2063416,
      34.6143688
     ]
    ]
   }
  },
  {
   "type": "Feature",
   "properties": {
    "kind": "runway",
    "osm_id": 1560749918,
    "length": "1200",
    "ref": "01/19",
    "width": "45"
   },
   "geometry": {
    "type": "LineString",
    "coordinates": [
     [
      127.2127644,
      34.6125108
     ],
     [
      127.2124902,
      34.6083108
     ],
     [
      127.2120004,
      34.60081
     ]
    ]
   }
  }
 ]
}